{"type": "FeatureCollection", "features": [ {"type": "Feature", "properties": {"norad_id": 31286, "name": "FENGYUN 1C DEB", "group": "fengyun-1c-debris", "lat": -19.16475876188254, "lon": -101.6496093954576, "alt_km": 828.2480888707569, "timestamp": "2025-12-26T16:33:55.852581+00:00", "meta": {"OBJECT_NAME": "FENGYUN 1C DEB", "OBJECT_ID": "1999-025BNU", "EPOCH": "2025-12-24T10:39:17.716320", "MEAN_MOTION": 14.22891604, "ECCENTRICITY": 0.00786424, "INCLINATION": 100.8587, "RA_OF_ASC_NODE": 251.7618, "ARG_OF_PERICENTER": 248.2654, "MEAN_ANOMALY": 111.0132, "EPHEMERIS_TYPE": 0, "CLASSIFICATION_TYPE": "U", "NORAD_CAT_ID": 31286, "ELEMENT_SET_NO": 999, "REV_AT_EPOCH": 64186, "BSTAR": 0.0027763524, "MEAN_MOTION_DOT": 6.385e-05, "MEAN_MOTION_DDOT": 0}, "tle": {"line1": "1 31286U 99025BNU 25358.44395505  .00006385  00000+0  27764-2 0  9992", "line2": "2 31286 100.8587 251.7618 0078642 248.2654 111.0132 14.22891604641860"}}, "geometry": {"type": "Point", "coordinates": [-101.6496093954576, -19.16475876188254]}}, {"type": "Feature", "properties": {"norad_id": 31287, "name": "FENGYUN 1C DEB", "group": "fengyun-1c-debris", "lat": -67.40221925376744, "lon": 81.18314953682592, "alt_km": 806.1878686937835, "timestamp": "2025-12-26T16:33:55.852590+00:00", "meta": {"OBJECT_NAME": "FENGYUN 1C DEB", "OBJECT_ID": "1999-025BNV", "EPOCH": "2025-12-17T09:14:55.199040", "MEAN_MOTION": 14.280549, "ECCENTRICITY": 0.0027206, "INCLINATION": 99.41, "RA_OF_ASC_NODE": 47.6846, "ARG_OF_PERICENTER": 50.1324, "MEAN_ANOMALY": 310.2241, "EPHEMERIS_TYPE": 0, "CLASSIFICATION_TYPE": "U", "NORAD_CAT_ID": 31287, "ELEMENT_SET_NO": 999, "REV_AT_EPOCH": 96752, "BSTAR": 0.0011667317, "MEAN_MOTION_DOT": 2.86e-05, "MEAN_MOTION_DDOT": 0}, "tle": {"line1": "1 31287U 99025BNV 25351.38536110  .00002860  00000+0  11667-2 0  9997", "line2": "2 31287  99.4100  47.6846 0027206  50.1324 310.2241 14.28054900967528"}}, "geometry": {"type": "Point", "coordinates": [81.18314953682592, -67.40221925376744]}}, {"type": "Feature", "properties": {"norad_id": 31288, "name": "FENGYUN 1C DEB", "group": "fengyun-1c-debris", "lat": -76.14047978483674, "lon": -58.2320305441117, "alt_km": 566.6514771557158, "timestamp": "2025-12-26T16:33:55.852599+00:00", "meta": {"OBJECT_NAME": "FENGYUN 1C DEB", "OBJECT_ID": "1999-025BNW", "EPOCH": "2025-12-25T22:26:34.632384", "MEAN_MOTION": 14.97229146, "ECCENTRICITY": 0.0022775, "INCLINATION": 98.7454, "RA_OF_ASC_NODE": 159.527, "ARG_OF_PERICENTER": 259.3147, "MEAN_ANOMALY": 252.1419, "EPHEMERIS_TYPE": 0, "CLASSIFICATION_TYPE": "U", "NORAD_CAT_ID": 31288, "ELEMENT_SET_NO": 999, "REV_AT_EPOCH": 97754, "BSTAR": 0.0055631, "MEAN_MOTION_DOT": 0.00065231, "MEAN_MOTION_DDOT": 0}, "tle": {"line1": "1 31288U 99025BNW 25359.93512306  .00065231  00000+0  55631-2 0  9998", "line2": "2 31288  98.7454 159.5270 0022775 259.3147 252.1419 14.97229146977545"}}, "geometry": {"type": "Point", "coordinates": [-58.2320305441117, -76.14047978483674]}}, {"type": "Feature", "properties": {"norad_id": 31293, "name": "FENGYUN 1C DEB", "group": "fengyun-1c-debris", "lat": 52.56804314962832, "lon": -160.81845546861805, "alt_km": 762.5556633922251, "timestamp": "2025-12-26T16:33:55.852608+00:00", "meta": {"OBJECT_NAME": "FENGYUN 1C DEB", "OBJECT_ID": "1999-025BPB", "EPOCH": "2025-12-22T06:13:51.554208", "MEAN_MOTION": 14.30816344, "ECCENTRICITY": 0.01257922, "INCLINATION": 98.4224, "RA_OF_ASC_NODE": 3.727, "ARG_OF_PERICENTER": 216.5399, "MEAN_ANOMALY": 142.7154, "EPHEMERIS_TYPE": 0, "CLASSIFICATION_TYPE": "U", "NORAD_CAT_ID": 31293, "ELEMENT_SET_NO": 999, "REV_AT_EPOCH": 65380, "BSTAR": 6.4145544e-05, "MEAN_MOTION_DOT": 1.39e-06, "MEAN_MOTION_DDOT": 0}, "tle": {"line1": "1 31293U 99025BPB 25356.25962447  .00000139  00000+0  64146-4 0  9990", "line2": "2 31293  98.4224   3.7270 0125792 216.5399 142.7154 14.30816344653809"}}, "geometry": {"type": "Point", "coordinates": [-160.81845546861805, 52.56804314962832]}}, {"type": "Feature", "properties": {"norad_id": 31294, "name": "FENGYUN 1C DEB", "group": "fengyun-1c-debris", "lat": 44.897904648777526, "lon": -175.66553400318136, "alt_km": 906.7654661618144, "timestamp": "2025-12-26T16:33:55.852616+00:00", "meta": {"OBJECT_NAME": "FENGYUN 1C DEB", "OBJECT_ID": "1999-025BPC", "EPOCH": "2025-12-25T22:57:37.291104", "MEAN_MOTION": 14.15338572, "ECCENTRICITY": 0.0099077, "INCLINATION": 98.5439, "RA_OF_ASC_NODE": 355.0165, "ARG_OF_PERICENTER": 302.8872, "MEAN_ANOMALY": 56.2798, "EPHEMERIS_TYPE": 0, "CLASSIFICATION_TYPE": "U", "NORAD_CAT_ID": 31294, "ELEMENT_SET_NO": 999, "REV_AT_EPOCH": 97040, "BSTAR": 0.00048177, "MEAN_MOTION_DOT": 9.41e-06, "MEAN_MOTION_DDOT": 0}, "tle": {"line1": "1 31294U 99025BPC 25359.95668161  .00000941  00000+0  48177-3 0  9993", "line2": "2 31294  98.5439 355.0165 0099077 302.8872  56.2798 14.15338572970402"}}, "geometry": {"type": "Point", "coordinates": [-175.66553400318136, 44.897904648777526]}}, {"type": "Feature", "properties": {"norad_id": 31295, "name": "FENGYUN 1C DEB", "group": "fengyun-1c-debris", "lat": -53.098127523980885, "lon": -6.931220667846954, "alt_km": 859.5542564736415, "timestamp": "2025-12-26T16:33:55.852625+00:00", "meta": {"OBJECT_NAME": "FENGYUN 1C DEB", "OBJECT_ID": "1999-025BPD", "EPOCH": "2025-12-25T11:56:32.906976", "MEAN_MOTION": 13.96834303, "ECCENTRICITY": 0.0077253, "INCLINATION": 98.3163, "RA_OF_ASC_NODE": 183.2226, "ARG_OF_PERICENTER": 215.0084, "MEAN_ANOMALY": 144.5989, "EPHEMERIS_TYPE": 0, "CLASSIFICATION_TYPE": "U", "NORAD_CAT_ID": 31295, "ELEMENT_SET_NO": 999, "REV_AT_EPOCH": 95681, "BSTAR": 0.00010445, "MEAN_MOTION_DOT": 1.11e-06, "MEAN_MOTION_DDOT": 0}, "tle": {"line1": "1 31295U 99025BPD 25359.49760309  .00000111  00000+0  10445-3 0  9996", "line2": "2 31295  98.3163 183.2226 0077253 215.0084 144.5989 13.96834303956819"}}, "geometry": {"type": "Point", "coordinates": [-6.931220667846954, -53.098127523980885]}}, {"type": "Feature", "properties": {"norad_id": 31296, "name": "FENGYUN 1C DEB", "group": "fengyun-1c-debris", "lat": -17.569682204288288, "lon": 94.27295208935868, "alt_km": 647.479759298265, "timestamp": "2025-12-26T16:33:55.852635+00:00", "meta": {"OBJECT_NAME": "FENGYUN 1C DEB", "OBJECT_ID": "1999-025BPE", "EPOCH": "2025-12-26T05:53:01.289184", "MEAN_MOTION": 14.72124981, "ECCENTRICITY": 0.00197256, "INCLINATION": 99.0644, "RA_OF_ASC_NODE": 276.6748, "ARG_OF_PERICENTER": 166.3929, "MEAN_ANOMALY": 193.7811, "EPHEMERIS_TYPE": 0, "CLASSIFICATION_TYPE": "U", "NORAD_CAT_ID": 31296, "ELEMENT_SET_NO": 999, "REV_AT_EPOCH": 97548, "BSTAR": 0.0040588984, "MEAN_MOTION_DOT": 0.0002566, "MEAN_MOTION_DDOT": 0}, "tle": {"line1": "1 31296U 99025BPE 25360.24515381  .00025660  00000+0  40589-2 0  9997", "line2": "2 31296  99.0644 276.6748 0019725 166.3929 193.7811 14.72124981975487"}}, "geometry": {"type": "Point", "coordinates": [94.27295208935868, -17.569682204288288]}}, {"type": "Feature", "properties": {"norad_id": 31297, "name": "FENGYUN 1C DEB", "group": "fengyun-1c-debris", "lat": -63.16890595379745, "lon": 156.71310989360316, "alt_km": 790.4463617195788, "timestamp": "2025-12-26T16:33:55.852644+00:00", "meta": {"OBJECT_NAME": "FENGYUN 1C DEB", "OBJECT_ID": "1999-025BPF", "EPOCH": "2025-12-24T21:02:44.662848", "MEAN_MOTION": 14.5712054, "ECCENTRICITY": 0.0139723, "INCLINATION": 98.9349, "RA_OF_ASC_NODE": 136.6475, "ARG_OF_PERICENTER": 86.1849, "MEAN_ANOMALY": 63.6545, "EPHEMERIS_TYPE": 0, "CLASSIFICATION_TYPE": "U", "NORAD_CAT_ID": 31297, "ELEMENT_SET_NO": 999, "REV_AT_EPOCH": 99492, "BSTAR": 0.00030781, "MEAN_MOTION_DOT": 1.526e-05, "MEAN_MOTION_DDOT": 0}, "tle": {"line1": "1 31297U 99025BPF 25358.87690582  .00001526  00000+0  30781-3 0  9990", "line2": "2 31297  98.9349 136.6475 0139723  86.1849  63.6545 14.57120540994920"}}, "geometry": {"type": "Point", "coordinates": [156.71310989360316, -63.16890595379745]}}, {"type": "Feature", "properties": {"norad_id": 31300, "name": "FENGYUN 1C DEB", "group": "fengyun-1c-debris", "lat": -63.82442676864785, "lon": 101.01335917539657, "alt_km": 845.573140358315, "timestamp": "2025-12-26T16:33:55.852652+00:00", "meta": {"OBJECT_NAME": "FENGYUN 1C DEB", "OBJECT_ID": "1999-025BPJ", "EPOCH": "2025-12-26T05:17:25.522656", "MEAN_MOTION": 14.15185875, "ECCENTRICITY": 0.00595027, "INCLINATION": 99.5415, "RA_OF_ASC_NODE": 80.5013, "ARG_OF_PERICENTER": 21.8587, "MEAN_ANOMALY": 41.2157, "EPHEMERIS_TYPE": 0, "CLASSIFICATION_TYPE": "U", "NORAD_CAT_ID": 31300, "ELEMENT_SET_NO": 999, "REV_AT_EPOCH": 96365, "BSTAR": 0.0011658383, "MEAN_MOTION_DOT": 2.254e-05, "MEAN_MOTION_DDOT": 0}, "tle": {"line1": "1 31300U 99025BPJ 25360.22043429  .00002254  00000+0  11658-2 0  9999", "line2": "2 31300  99.5415  80.5013 0059502  21.8587  41.2157 14.15185875963655"}}, "geometry": {"type": "Point", "coordinates": [101.01335917539657, -63.82442676864785]}}, {"type": "Feature", "properties": {"norad_id": 31302, "name": "FENGYUN 1C DEB", "group": "fengyun-1c-debris", "lat": 36.37606378525303, "lon": 36.774533124311105, "alt_km": 779.4291945820742, "timestamp": "2025-12-26T16:33:55.852661+00:00", "meta": {"OBJECT_NAME": "FENGYUN 1C DEB", "OBJECT_ID": "1999-025BPL", "EPOCH": "2025-12-19T15:12:58.171104", "MEAN_MOTION": 14.27574345, "ECCENTRICITY": 0.002659, "INCLINATION": 99.4129, "RA_OF_ASC_NODE": 36.2, "ARG_OF_PERICENTER": 35.1141, "MEAN_ANOMALY": 117.7071, "EPHEMERIS_TYPE": 0, "CLASSIFICATION_TYPE": "U", "NORAD_CAT_ID": 31302, "ELEMENT_SET_NO": 999, "REV_AT_EPOCH": 96456, "BSTAR": 0.00096178, "MEAN_MOTION_DOT": 2.325e-05, "MEAN_MOTION_DDOT": 0}, "tle": {"line1": "1 31302U 99025BPL 25353.63400661  .00002325  00000+0  96178-3 0  9993", "line2": "2 31302  99.4129  36.2000 0026590  35.1141 117.7071 14.27574345964569"}}, "geometry": {"type": "Point", "coordinates": [36.774533124311105, 36.37606378525303]}}]}